{"epoch":1784799577,"count":18318,"objects":[{"id":"41556","name":"ZY 3 2","type":"PAYLOAD","l1":"1 41556U 16033A   26203.97071641  .00006129  00000-0  27753-3 0  9997","l2":"2 41556  97.3821 279.0562 0013544 161.0314 199.1429 15.21158279563423"}]}